ONEWEB-0645             
1 55809U 23029P   25023.97978677  .00000078  00000+0  16295-3 0  9995
2 55809  87.9149  46.2178 0001564 101.5845 258.5463 13.19727596 91749
ONEWEB-0646             
1 55810U 23029Q   25023.55489730  .00000016  00000+0  73916-5 0  9995
2 55810  87.9149  46.2984 0002038  99.9080 260.2283 13.19723905 91676
ONEWEB-0648             
1 55811U 23029R   25024.49336365  .00001353  00000+0  36149-2 0  9994
2 55811  87.9000  30.8518 0001896 122.1851 237.9463 13.14495921 93279
ONEWEB-0649             
1 55812U 23029S   25023.59359805  .00000066  00000+0  13137-3 0  9992
2 55812  87.9146  46.2826 0001799 111.0504 249.0821 13.19723960 91719
ONEWEB-0650             
1 55813U 23029T   25023.58885363  .00000049  00000+0  90321-4 0  9997
2 55813  87.9150  46.2898 0001865 101.0546 259.0797 13.19727735 91686
ONEWEB-0652             
1 55814U 23029U   25023.94149493  .00000108  00000+0  25799-3 0  9997
2 55814  87.8995  30.9722 0001800  84.6781 275.4554 13.14503304 92464
ONEWEB-0653             
1 55815U 23029V   25023.92564931  .00000261  00000+0  66938-3 0  9994
2 55815  87.8994  30.9611 0001603  85.1281 275.0032 13.14502079 92491
ONEWEB-0654             
1 55816U 23029W   25023.92088706  .00000264  00000+0  67788-3 0  9993
2 55816  87.8991  30.9663 0001749  74.6735 285.4588 13.14502305 92510
